FLOCK 4G-24             
1 62637U 25009AE  26068.72509072  .00010513  00000+0  38996-3 0  9991
2 62637  97.4061 151.5140 0001802 280.2808  79.8228 15.27784978 63732
STARLINK-35787          
1 66978U 25288V   26068.25149283  .00024342  00000+0  89156-3 0  9993
2 66978  43.0028  25.6444 0001335 274.6201  85.4498 15.27565968 15226
